SPOT 7                  
1 40053U 14034A   26066.60909838  .00000647  00000+0  14159-3 0  9996
2 40053  98.0746 131.6729 0001354  99.6904 260.4450 14.60858475622309
SKYSAT-B                
1 40072U 14037D   26066.57729854  .00002387  00000+0  26853-3 0  9991
2 40072  98.3727  19.8426 0004273 242.0706 118.0076 14.87716938630857
WORLDVIEW-3 (WV-3)      
1 40115U 14048A   26066.61908731  .00001414  00000+0  17280-3 0  9993
2 40115  97.8638 142.8395 0000284   8.3742 351.7478 14.84829718626836
GAOFEN-2                
1 40118U 14049A   26066.61810678  .00001376  00000+0  18553-3 0  9990
2 40118  98.0225 130.8790 0006857 191.9022 168.2029 14.80769875624207
YAOGAN-21               
1 40143U 14053A   26066.63122720  .00009559  00000+0  38640-3 0  9999
2 40143  97.1617 111.2618 0010246  92.5964 267.6448 15.24888923639479
YAOGAN-22               
1 40275U 14063A   26066.65745896 -.00000020  00000+0  70316-4 0  9995
2 40275 100.7534 216.3098 0006671  62.3384 297.8404 13.15526928546466
ASNARO                  
1 40298U 14070A   26066.61843396  .00017900  00000+0  83848-3 0  9995
2 40298  97.3517 145.4361 0007278 148.5594 211.6077 15.19744465628580
YAOGAN-24               
1 40310U 14072A   26066.60958763  .00001667  00000+0  24827-3 0  9991
2 40310  98.1307 203.1902 0012243 225.4071 134.6140 14.76225783608736
CBERS 4                 
1 40336U 14079A   26066.62203597  .00000390  00000+0  15062-3 0  9999
2 40336  98.3483 126.7006 0000706  57.3091 302.8163 14.35413482589384
YAOGAN-26               
1 40362U 14088A   26066.59784642  .00014447  00000+0  32832-3 0  9991
2 40362  97.0669  69.4840 0007119  71.7664 288.4359 15.43080681622010
SMAP                    
1 40376U 15003A   26066.60982168  .00000797  00000+0  16348-3 0  9996
2 40376  98.1313  75.1275 0001344 112.2020 247.9325 14.63336222592767
KOMPSAT-3A              
1 40536U 15014A   26066.59126858  .00031700  00000+0  54866-3 0  9995
2 40536  97.6877  50.9548 0063217 185.1070 174.9543 15.48597958606068
SENTINEL-2A             
1 40697U 15028A   26056.18000490  .00000159  00000+0  76852-4 0  9999
2 40697  98.5024 132.8928 0054368 194.7437 165.2162 14.30192923557712
GAOFEN-8                
1 40701U 15030A   26066.60679484  .00030506  00000+0  70683-3 0  9995
2 40701  97.6930 254.1356 0009403 195.5218 164.5741 15.42338544595771
CARBONITE 1 (CBNT-1)    
1 40718U 15032D   26066.59763897  .00003163  00000+0  39286-3 0  9998
2 40718  97.6462 248.9555 0013173 268.0741  91.8965 14.83207910574286
YAOGAN-27               
1 40878U 15040A   26066.61669539 -.00000059  00000+0 -44484-4 0  9995
2 40878 100.1106  57.4347 0008916  88.6931 271.5205 13.16065975504304
GAOFEN-9 01             
1 40894U 15047A   26066.63703810  .00001548  00000+0  19687-3 0  9991
2 40894  97.6421 106.8911 0028849 112.2708 248.1570 14.82675698565148
