[{"OBJECT_NAME":"SPOT 7","OBJECT_ID":"2014-034A","EPOCH":"2026-03-07T14:37:06.100032","MEAN_MOTION":14.60858475,"ECCENTRICITY":0.00013542,"INCLINATION":98.0746,"RA_OF_ASC_NODE":131.6729,"ARG_OF_PERICENTER":99.6904,"MEAN_ANOMALY":260.445,"EPHEMERIS_TYPE":0,"CLASSIFICATION_TYPE":"U","NORAD_CAT_ID":40053,"ELEMENT_SET_NO":999,"REV_AT_EPOCH":62230,"BSTAR":0.00014159139,"MEAN_MOTION_DOT":6.47e-6,"MEAN_MOTION_DDOT":0},{"OBJECT_NAME":"SKYSAT-B","OBJECT_ID":"2014-037D","EPOCH":"2026-03-07T13:51:18.593856","MEAN_MOTION":14.87716938,"ECCENTRICITY":0.00042732,"INCLINATION":98.3727,"RA_OF_ASC_NODE":19.8426,"ARG_OF_PERICENTER":242.0706,"MEAN_ANOMALY":118.0076,"EPHEMERIS_TYPE":0,"CLASSIFICATION_TYPE":"U","NORAD_CAT_ID":40072,"ELEMENT_SET_NO":999,"REV_AT_EPOCH":63085,"BSTAR":0.00026852968,"MEAN_MOTION_DOT":2.387e-5,"MEAN_MOTION_DDOT":0},{"OBJECT_NAME":"WORLDVIEW-3 (WV-3)","OBJECT_ID":"2014-048A","EPOCH":"2026-03-07T14:51:29.143584","MEAN_MOTION":14.84829718,"ECCENTRICITY":2.849e-5,"INCLINATION":97.8638,"RA_OF_ASC_NODE":142.8395,"ARG_OF_PERICENTER":8.3742,"MEAN_ANOMALY":351.7478,"EPHEMERIS_TYPE":0,"CLASSIFICATION_TYPE":"U","NORAD_CAT_ID":40115,"ELEMENT_SET_NO":999,"REV_AT_EPOCH":62683,"BSTAR":0.00017280368,"MEAN_MOTION_DOT":1.414e-5,"MEAN_MOTION_DDOT":0},{"OBJECT_NAME":"GAOFEN-2","OBJECT_ID":"2014-049A","EPOCH":"2026-03-07T14:50:04.425792","MEAN_MOTION":14.80769875,"ECCENTRICITY":0.0006857,"INCLINATION":98.0225,"RA_OF_ASC_NODE":130.879,"ARG_OF_PERICENTER":191.9022,"MEAN_ANOMALY":168.2029,"EPHEMERIS_TYPE":0,"CLASSIFICATION_TYPE":"U","NORAD_CAT_ID":40118,"ELEMENT_SET_NO":999,"REV_AT_EPOCH":62420,"BSTAR":0.0001855335,"MEAN_MOTION_DOT":1.376e-5,"MEAN_MOTION_DDOT":0},{"OBJECT_NAME":"YAOGAN-21","OBJECT_ID":"2014-053A","EPOCH":"2026-03-07T15:08:58.030080","MEAN_MOTION":15.24888923,"ECCENTRICITY":0.00102469,"INCLINATION":97.1617,"RA_OF_ASC_NODE":111.2618,"ARG_OF_PERICENTER":92.5964,"MEAN_ANOMALY":267.6448,"EPHEMERIS_TYPE":0,"CLASSIFICATION_TYPE":"U","NORAD_CAT_ID":40143,"ELEMENT_SET_NO":999,"REV_AT_EPOCH":63947,"BSTAR":0.0003864038,"MEAN_MOTION_DOT":9.559e-5,"MEAN_MOTION_DDOT":0},{"OBJECT_NAME":"YAOGAN-22","OBJECT_ID":"2014-063A","EPOCH":"2026-03-07T15:46:44.454144","MEAN_MOTION":13.15526928,"ECCENTRICITY":0.00066714,"INCLINATION":100.7534,"RA_OF_ASC_NODE":216.3098,"ARG_OF_PERICENTER":62.3384,"MEAN_ANOMALY":297.8404,"EPHEMERIS_TYPE":0,"CLASSIFICATION_TYPE":"U","NORAD_CAT_ID":40275,"ELEMENT_SET_NO":999,"REV_AT_EPOCH":54646,"BSTAR":7.0315992e-5,"MEAN_MOTION_DOT":-2.0e-7,"MEAN_MOTION_DDOT":0},{"OBJECT_NAME":"ASNARO","OBJECT_ID":"2014-070A","EPOCH":"2026-03-07T14:50:32.694144","MEAN_MOTION":15.19744465,"ECCENTRICITY":0.0007278,"INCLINATION":97.3517,"RA_OF_ASC_NODE":145.4361,"ARG_OF_PERICENTER":148.5594,"MEAN_ANOMALY":211.6077,"EPHEMERIS_TYPE":0,"CLASSIFICATION_TYPE":"U","NORAD_CAT_ID":40298,"ELEMENT_SET_NO":999,"REV_AT_EPOCH":62858,"BSTAR":0.00083847513,"MEAN_MOTION_DOT":0.000179,"MEAN_MOTION_DDOT":0},{"OBJECT_NAME":"YAOGAN-24","OBJECT_ID":"2014-072A","EPOCH":"2026-03-07T14:37:48.371232","MEAN_MOTION":14.76225783,"ECCENTRICITY":0.00122439,"INCLINATION":98.1307,"RA_OF_ASC_NODE":203.1902,"ARG_OF_PERICENTER":225.4071,"MEAN_ANOMALY":134.614,"EPHEMERIS_TYPE":0,"CLASSIFICATION_TYPE":"U","NORAD_CAT_ID":40310,"ELEMENT_SET_NO":999,"REV_AT_EPOCH":60873,"BSTAR":0.00024826834,"MEAN_MOTION_DOT":1.667e-5,"MEAN_MOTION_DDOT":0},{"OBJECT_NAME":"CBERS 4","OBJECT_ID":"2014-079A","EPOCH":"2026-03-07T14:55:43.907808","MEAN_MOTION":14.35413482,"ECCENTRICITY":7.067e-5,"INCLINATION":98.3483,"RA_OF_ASC_NODE":126.7006,"ARG_OF_PERICENTER":57.3091,"MEAN_ANOMALY":302.8163,"EPHEMERIS_TYPE":0,"CLASSIFICATION_TYPE":"U","NORAD_CAT_ID":40336,"ELEMENT_SET_NO":999,"REV_AT_EPOCH":58938,"BSTAR":0.00015062478,"MEAN_MOTION_DOT":3.9e-6,"MEAN_MOTION_DDOT":0},{"OBJECT_NAME":"YAOGAN-26","OBJECT_ID":"2014-088A","EPOCH":"2026-03-07T14:20:53.930688","MEAN_MOTION":15.43080681,"ECCENTRICITY":0.00071191,"INCLINATION":97.0669,"RA_OF_ASC_NODE":69.484,"ARG_OF_PERICENTER":71.7664,"MEAN_ANOMALY":288.4359,"EPHEMERIS_TYPE":0,"CLASSIFICATION_TYPE":"U","NORAD_CAT_ID":40362,"ELEMENT_SET_NO":999,"REV_AT_EPOCH":62201,"BSTAR":0.00032832014,"MEAN_MOTION_DOT":0.00014447,"MEAN_MOTION_DDOT":0},{"OBJECT_NAME":"SMAP","OBJECT_ID":"2015-003A","EPOCH":"2026-03-07T14:38:08.593152","MEAN_MOTION":14.63336222,"ECCENTRICITY":0.00013449,"INCLINATION":98.1313,"RA_OF_ASC_NODE":75.1275,"ARG_OF_PERICENTER":112.202,"MEAN_ANOMALY":247.9325,"EPHEMERIS_TYPE":0,"CLASSIFICATION_TYPE":"U","NORAD_CAT_ID":40376,"ELEMENT_SET_NO":999,"REV_AT_EPOCH":59276,"BSTAR":0.0001634848,"MEAN_MOTION_DOT":7.97e-6,"MEAN_MOTION_DDOT":0},{"OBJECT_NAME":"KOMPSAT-3A","OBJECT_ID":"2015-014A","EPOCH":"2026-03-07T14:11:25.605312","MEAN_MOTION":15.48597958,"ECCENTRICITY":0.00632179,"INCLINATION":97.6877,"RA_OF_ASC_NODE":50.9548,"ARG_OF_PERICENTER":185.107,"MEAN_ANOMALY":174.9543,"EPHEMERIS_TYPE":0,"CLASSIFICATION_TYPE":"U","NORAD_CAT_ID":40536,"ELEMENT_SET_NO":999,"REV_AT_EPOCH":60606,"BSTAR":0.0005486595,"MEAN_MOTION_DOT":0.000317,"MEAN_MOTION_DDOT":0},{"OBJECT_NAME":"SENTINEL-2A","OBJECT_ID":"2015-028A","EPOCH":"2026-02-25T04:19:12.423360","MEAN_MOTION":14.30192923,"ECCENTRICITY":0.00543683,"INCLINATION":98.5024,"RA_OF_ASC_NODE":132.8928,"ARG_OF_PERICENTER":194.7437,"MEAN_ANOMALY":165.2162,"EPHEMERIS_TYPE":0,"CLASSIFICATION_TYPE":"U","NORAD_CAT_ID":40697,"ELEMENT_SET_NO":999,"REV_AT_EPOCH":55771,"BSTAR":7.6852184e-5,"MEAN_MOTION_DOT":1.59e-6,"MEAN_MOTION_DDOT":0},{"OBJECT_NAME":"GAOFEN-8","OBJECT_ID":"2015-030A","EPOCH":"2026-03-07T14:33:47.074176","MEAN_MOTION":15.42338544,"ECCENTRICITY":0.00094032,"INCLINATION":97.693,"RA_OF_ASC_NODE":254.1356,"ARG_OF_PERICENTER":195.5218,"MEAN_ANOMALY":164.5741,"EPHEMERIS_TYPE":0,"CLASSIFICATION_TYPE":"U","NORAD_CAT_ID":40701,"ELEMENT_SET_NO":999,"REV_AT_EPOCH":59577,"BSTAR":0.00070683453,"MEAN_MOTION_DOT":0.00030506,"MEAN_MOTION_DDOT":0},{"OBJECT_NAME":"CARBONITE 1 (CBNT-1)","OBJECT_ID":"2015-032D","EPOCH":"2026-03-07T14:20:36.007008","MEAN_MOTION":14.8320791,"ECCENTRICITY":0.00131731,"INCLINATION":97.6462,"RA_OF_ASC_NODE":248.9555,"ARG_OF_PERICENTER":268.0741,"MEAN_ANOMALY":91.8965,"EPHEMERIS_TYPE":0,"CLASSIFICATION_TYPE":"U","NORAD_CAT_ID":40718,"ELEMENT_SET_NO":999,"REV_AT_EPOCH":57428,"BSTAR":0.00039285935,"MEAN_MOTION_DOT":3.163e-5,"MEAN_MOTION_DDOT":0},{"OBJECT_NAME":"YAOGAN-27","OBJECT_ID":"2015-040A","EPOCH":"2026-03-07T14:48:02.481696","MEAN_MOTION":13.16065975,"ECCENTRICITY":0.00089168,"INCLINATION":100.1106,"RA_OF_ASC_NODE":57.4347,"ARG_OF_PERICENTER":88.6931,"MEAN_ANOMALY":271.5205,"EPHEMERIS_TYPE":0,"CLASSIFICATION_TYPE":"U","NORAD_CAT_ID":40878,"ELEMENT_SET_NO":999,"REV_AT_EPOCH":50430,"BSTAR":-4.4483652e-5,"MEAN_MOTION_DOT":-5.9e-7,"MEAN_MOTION_DDOT":0},{"OBJECT_NAME":"GAOFEN-9 01","OBJECT_ID":"2015-047A","EPOCH":"2026-03-07T15:17:20.091840","MEAN_MOTION":14.82675698,"ECCENTRICITY":0.00288495,"INCLINATION":97.6421,"RA_OF_ASC_NODE":106.8911,"ARG_OF_PERICENTER":112.2708,"MEAN_ANOMALY":248.157,"EPHEMERIS_TYPE":0,"CLASSIFICATION_TYPE":"U","NORAD_CAT_ID":40894,"ELEMENT_SET_NO":999,"REV_AT_EPOCH":56514,"BSTAR":0.00019686545,"MEAN_MOTION_DOT":1.548e-5,"MEAN_MOTION_DDOT":0}]
